[{"OBJECT_NAME":"STARLINK-30946","OBJECT_ID":"2023-183P","EPOCH":"2026-03-09T22:00:01.999584","MEAN_MOTION":15.2756105,"ECCENTRICITY":0.00013588,"INCLINATION":43.0004,"RA_OF_ASC_NODE":40.3196,"ARG_OF_PERICENTER":263.0647,"MEAN_ANOMALY":298.7187,"EPHEMERIS_TYPE":0,"CLASSIFICATION_TYPE":"U","NORAD_CAT_ID":58450,"ELEMENT_SET_NO":999,"REV_AT_EPOCH":578,"BSTAR":0.0011263703,"MEAN_MOTION_DOT":0.00030845,"MEAN_MOTION_DDOT":0},{"OBJECT_NAME":"OBJECT BE","OBJECT_ID":"2025-313BE","EPOCH":"2026-03-09T16:43:59.380320","MEAN_MOTION":15.29801687,"ECCENTRICITY":0.00072083,"INCLINATION":97.3989,"RA_OF_ASC_NODE":145.3568,"ARG_OF_PERICENTER":335.3714,"MEAN_ANOMALY":24.7181,"EPHEMERIS_TYPE":0,"CLASSIFICATION_TYPE":"U","NORAD_CAT_ID":67482,"ELEMENT_SET_NO":999,"REV_AT_EPOCH":797,"BSTAR":0.0026504328,"MEAN_MOTION_DOT":0.00077178,"MEAN_MOTION_DDOT":0}]
